{"type": "FeatureCollection", "features": [ {"type": "Feature", "properties": {"norad_id": 30013, "name": "FENGYUN 1C DEB", "group": "fengyun-1c-debris", "lat": -74.72865798690671, "lon": 36.83089168054572, "alt_km": 1016.5762634343837, "timestamp": "2025-12-05T09:41:19.402883+00:00", "meta": {"OBJECT_NAME": "FENGYUN 1C DEB", "OBJECT_ID": "1999-025MN", "EPOCH": "2025-12-04T15:36:28.846368", "MEAN_MOTION": 13.87817998, "ECCENTRICITY": 0.0128415, "INCLINATION": 99.5807, "RA_OF_ASC_NODE": 357.8448, "ARG_OF_PERICENTER": 65.4479, "MEAN_ANOMALY": 55.5365, "EPHEMERIS_TYPE": 0, "CLASSIFICATION_TYPE": "U", "NORAD_CAT_ID": 30013, "ELEMENT_SET_NO": 999, "REV_AT_EPOCH": 95569, "BSTAR": 0.00041338, "MEAN_MOTION_DOT": 4.78e-06, "MEAN_MOTION_DDOT": 0}, "tle": {"line1": "1 30013U 99025MN  25338.65033387  .00000478  00000+0  41338-3 0  9998", "line2": "2 30013  99.5807 357.8448 0128415  65.4479  55.5365 13.87817998955696"}}, "geometry": {"type": "Point", "coordinates": [36.83089168054572, -74.72865798690671]}}, {"type": "Feature", "properties": {"norad_id": 30015, "name": "FENGYUN 1C DEB", "group": "fengyun-1c-debris", "lat": 78.80490773993395, "lon": -73.38738857895905, "alt_km": 768.8822152596831, "timestamp": "2025-12-05T09:41:19.402894+00:00", "meta": {"OBJECT_NAME": "FENGYUN 1C DEB", "OBJECT_ID": "1999-025MQ", "EPOCH": "2025-12-04T13:44:52.315008", "MEAN_MOTION": 14.30761725, "ECCENTRICITY": 0.003832, "INCLINATION": 99.228, "RA_OF_ASC_NODE": 340.9577, "ARG_OF_PERICENTER": 148.2185, "MEAN_ANOMALY": 338.621, "EPHEMERIS_TYPE": 0, "CLASSIFICATION_TYPE": "U", "NORAD_CAT_ID": 30015, "ELEMENT_SET_NO": 999, "REV_AT_EPOCH": 98056, "BSTAR": 0.0011933, "MEAN_MOTION_DOT": 3.102e-05, "MEAN_MOTION_DDOT": 0}, "tle": {"line1": "1 30015U 99025MQ  25338.57282772  .00003102  00000+0  11933-2 0  9999", "line2": "2 30015  99.2280 340.9577 0038320 148.2185 338.6210 14.30761725980568"}}, "geometry": {"type": "Point", "coordinates": [-73.38738857895905, 78.80490773993395]}}, {"type": "Feature", "properties": {"norad_id": 30016, "name": "FENGYUN 1C DEB", "group": "fengyun-1c-debris", "lat": 36.411541964215516, "lon": -16.043889615964922, "alt_km": 602.5162917043763, "timestamp": "2025-12-05T09:41:19.402904+00:00", "meta": {"OBJECT_NAME": "FENGYUN 1C DEB", "OBJECT_ID": "1999-025MR", "EPOCH": "2025-12-04T07:35:39.196896", "MEAN_MOTION": 14.78149648, "ECCENTRICITY": 0.0047547, "INCLINATION": 98.9053, "RA_OF_ASC_NODE": 349.396, "ARG_OF_PERICENTER": 66.9125, "MEAN_ANOMALY": 307.8898, "EPHEMERIS_TYPE": 0, "CLASSIFICATION_TYPE": "U", "NORAD_CAT_ID": 30016, "ELEMENT_SET_NO": 999, "REV_AT_EPOCH": 99329, "BSTAR": 0.0045405, "MEAN_MOTION_DOT": 0.00033593, "MEAN_MOTION_DDOT": 0}, "tle": {"line1": "1 30016U 99025MR  25338.31642589  .00033593  00000+0  45405-2 0  9996", "line2": "2 30016  98.9053 349.3960 0047547  66.9125 307.8898 14.78149648993293"}}, "geometry": {"type": "Point", "coordinates": [-16.043889615964922, 36.411541964215516]}}, {"type": "Feature", "properties": {"norad_id": 30017, "name": "FENGYUN 1C DEB", "group": "fengyun-1c-debris", "lat": -80.8545038977909, "lon": 96.76669389671535, "alt_km": 653.8233889426065, "timestamp": "2025-12-05T09:41:19.402915+00:00", "meta": {"OBJECT_NAME": "FENGYUN 1C DEB", "OBJECT_ID": "1999-025MS", "EPOCH": "2025-12-04T14:22:23.728800", "MEAN_MOTION": 14.61166106, "ECCENTRICITY": 0.021706, "INCLINATION": 98.7557, "RA_OF_ASC_NODE": 22.7136, "ARG_OF_PERICENTER": 200.1541, "MEAN_ANOMALY": 159.0991, "EPHEMERIS_TYPE": 0, "CLASSIFICATION_TYPE": "U", "NORAD_CAT_ID": 30017, "ELEMENT_SET_NO": 999, "REV_AT_EPOCH": 325, "BSTAR": 0.00033518, "MEAN_MOTION_DOT": 2.24e-05, "MEAN_MOTION_DDOT": 0}, "tle": {"line1": "1 30017U 99025MS  25338.59888575  .00002240  00000+0  33518-3 0  9992", "line2": "2 30017  98.7557  22.7136 0217060 200.1541 159.0991 14.61166106  3250"}}, "geometry": {"type": "Point", "coordinates": [96.76669389671535, -80.8545038977909]}}, {"type": "Feature", "properties": {"norad_id": 30018, "name": "FENGYUN 1C DEB", "group": "fengyun-1c-debris", "lat": -10.235832673439385, "lon": 63.06477611467022, "alt_km": 709.1083232998017, "timestamp": "2025-12-05T09:41:19.402926+00:00", "meta": {"OBJECT_NAME": "FENGYUN 1C DEB", "OBJECT_ID": "1999-025MT", "EPOCH": "2025-12-04T04:38:28.077792", "MEAN_MOTION": 14.73016954, "ECCENTRICITY": 0.01166146, "INCLINATION": 98.7575, "RA_OF_ASC_NODE": 60.165, "ARG_OF_PERICENTER": 222.2601, "MEAN_ANOMALY": 192.0756, "EPHEMERIS_TYPE": 0, "CLASSIFICATION_TYPE": "U", "NORAD_CAT_ID": 30018, "ELEMENT_SET_NO": 999, "REV_AT_EPOCH": 311, "BSTAR": 0.0018873364, "MEAN_MOTION_DOT": 0.00013469, "MEAN_MOTION_DDOT": 0}, "tle": {"line1": "1 30018U 99025MT  25338.19338053  .00013469  00000+0  18873-2 0  9991", "line2": "2 30018  98.7575  60.1650 0116614 222.2601 192.0756 14.73016954  3112"}}, "geometry": {"type": "Point", "coordinates": [63.06477611467022, -10.235832673439385]}}, {"type": "Feature", "properties": {"norad_id": 30020, "name": "FENGYUN 1C DEB", "group": "fengyun-1c-debris", "lat": 79.28618552157083, "lon": -141.1992439339667, "alt_km": 737.9481498296373, "timestamp": "2025-12-05T09:41:19.402936+00:00", "meta": {"OBJECT_NAME": "FENGYUN 1C DEB", "OBJECT_ID": "1999-025MV", "EPOCH": "2025-12-04T13:16:42.801024", "MEAN_MOTION": 14.0444162, "ECCENTRICITY": 0.0184111, "INCLINATION": 98.8466, "RA_OF_ASC_NODE": 342.5718, "ARG_OF_PERICENTER": 93.2954, "MEAN_ANOMALY": 25.2092, "EPHEMERIS_TYPE": 0, "CLASSIFICATION_TYPE": "U", "NORAD_CAT_ID": 30020, "ELEMENT_SET_NO": 999, "REV_AT_EPOCH": 96543, "BSTAR": 0.00079874, "MEAN_MOTION_DOT": 1.439e-05, "MEAN_MOTION_DDOT": 0}, "tle": {"line1": "1 30020U 99025MV  25338.55327316  .00001439  00000+0  79874-3 0  9997", "line2": "2 30020  98.8466 342.5718 0184111  93.2954  25.2092 14.04441620965439"}}, "geometry": {"type": "Point", "coordinates": [-141.1992439339667, 79.28618552157083]}}, {"type": "Feature", "properties": {"norad_id": 30021, "name": "FENGYUN 1C DEB", "group": "fengyun-1c-debris", "lat": -64.26355476561304, "lon": 132.3011900949088, "alt_km": 859.417944582864, "timestamp": "2025-12-05T09:41:19.402947+00:00", "meta": {"OBJECT_NAME": "FENGYUN 1C DEB", "OBJECT_ID": "1999-025MW", "EPOCH": "2025-12-04T12:35:32.504064", "MEAN_MOTION": 14.04884704, "ECCENTRICITY": 0.0072153, "INCLINATION": 98.8347, "RA_OF_ASC_NODE": 330.2677, "ARG_OF_PERICENTER": 310.3772, "MEAN_ANOMALY": 172.7983, "EPHEMERIS_TYPE": 0, "CLASSIFICATION_TYPE": "U", "NORAD_CAT_ID": 30021, "ELEMENT_SET_NO": 999, "REV_AT_EPOCH": 96816, "BSTAR": 0.0001985, "MEAN_MOTION_DOT": 2.83e-06, "MEAN_MOTION_DDOT": 0}, "tle": {"line1": "1 30021U 99025MW  25338.52468176  .00000283  00000+0  19850-3 0  9999", "line2": "2 30021  98.8347 330.2677 0072153 310.3772 172.7983 14.04884704968163"}}, "geometry": {"type": "Point", "coordinates": [132.3011900949088, -64.26355476561304]}}, {"type": "Feature", "properties": {"norad_id": 30022, "name": "FENGYUN 1C DEB", "group": "fengyun-1c-debris", "lat": 27.811865192500946, "lon": -177.54340156801052, "alt_km": 819.7596453171172, "timestamp": "2025-12-05T09:41:19.402957+00:00", "meta": {"OBJECT_NAME": "FENGYUN 1C DEB", "OBJECT_ID": "1999-025MX", "EPOCH": "2025-12-04T13:33:53.366400", "MEAN_MOTION": 14.23127911, "ECCENTRICITY": 0.0066666, "INCLINATION": 99.0727, "RA_OF_ASC_NODE": 186.428, "ARG_OF_PERICENTER": 292.8689, "MEAN_ANOMALY": 121.2367, "EPHEMERIS_TYPE": 0, "CLASSIFICATION_TYPE": "U", "NORAD_CAT_ID": 30022, "ELEMENT_SET_NO": 999, "REV_AT_EPOCH": 98076, "BSTAR": 0.00014258, "MEAN_MOTION_DOT": 2.82e-06, "MEAN_MOTION_DDOT": 0}, "tle": {"line1": "1 30022U 99025MX  25338.56520100  .00000282  00000+0  14258-3 0  9996", "line2": "2 30022  99.0727 186.4280 0066666 292.8689 121.2367 14.23127911980769"}}, "geometry": {"type": "Point", "coordinates": [-177.54340156801052, 27.811865192500946]}}, {"type": "Feature", "properties": {"norad_id": 30023, "name": "FENGYUN 1C DEB", "group": "fengyun-1c-debris", "lat": -72.32763737258686, "lon": -38.2286527707627, "alt_km": 894.0264702150771, "timestamp": "2025-12-05T09:41:19.402967+00:00", "meta": {"OBJECT_NAME": "FENGYUN 1C DEB", "OBJECT_ID": "1999-025MY", "EPOCH": "2025-12-04T12:19:58.183104", "MEAN_MOTION": 14.11845048, "ECCENTRICITY": 0.0047185, "INCLINATION": 99.2943, "RA_OF_ASC_NODE": 171.7789, "ARG_OF_PERICENTER": 86.2307, "MEAN_ANOMALY": 328.3564, "EPHEMERIS_TYPE": 0, "CLASSIFICATION_TYPE": "U", "NORAD_CAT_ID": 30023, "ELEMENT_SET_NO": 999, "REV_AT_EPOCH": 97080, "BSTAR": 0.00069447, "MEAN_MOTION_DOT": 1.234e-05, "MEAN_MOTION_DDOT": 0}, "tle": {"line1": "1 30023U 99025MY  25338.51386786  .00001234  00000+0  69447-3 0  9990", "line2": "2 30023  99.2943 171.7789 0047185  86.2307 328.3564 14.11845048970808"}}, "geometry": {"type": "Point", "coordinates": [-38.2286527707627, -72.32763737258686]}}, {"type": "Feature", "properties": {"norad_id": 30028, "name": "FENGYUN 1C DEB", "group": "fengyun-1c-debris", "lat": 76.04443902818672, "lon": -173.00418668844455, "alt_km": 807.0574821701848, "timestamp": "2025-12-05T09:41:19.402978+00:00", "meta": {"OBJECT_NAME": "FENGYUN 1C DEB", "OBJECT_ID": "1999-025ND", "EPOCH": "2025-12-02T22:06:11.946240", "MEAN_MOTION": 14.55417828, "ECCENTRICITY": 0.01741436, "INCLINATION": 98.1449, "RA_OF_ASC_NODE": 329.3822, "ARG_OF_PERICENTER": 259.0264, "MEAN_ANOMALY": 162.7045, "EPHEMERIS_TYPE": 0, "CLASSIFICATION_TYPE": "U", "NORAD_CAT_ID": 30028, "ELEMENT_SET_NO": 999, "REV_AT_EPOCH": 99579, "BSTAR": 0.00064520871, "MEAN_MOTION_DOT": 3.385e-05, "MEAN_MOTION_DDOT": 0}, "tle": {"line1": "1 30028U 99025ND  25336.92097160  .00003385  00000+0  64521-3 0  9990", "line2": "2 30028  98.1449 329.3822 0174143 259.0264 162.7045 14.55417828995796"}}, "geometry": {"type": "Point", "coordinates": [-173.00418668844455, 76.04443902818672]}}]}